#cP2014  2  8  0  0  0.00000000      96 ORBIT IGb08 HLM  IGS
## 1778 518400.00000000   900.00000000 56696 0.0000000000000
+   32   G01G02G03G04G05G06G07G08G09G10G11G12G13G14G15G16G17
+        G18G19G20G21G22G23G24G25G26G27G28G29G30G31G32  0  0
+          0  0  0  0  0  0  0  0  0  0  0  0  0  0  0  0  0
+          0  0  0  0  0  0  0  0  0  0  0  0  0  0  0  0  0
+          0  0  0  0  0  0  0  0  0  0  0  0  0  0  0  0  0
++         2  2  2  2  2  2  2  2  3  2  2  2  2  2  2  2  2
++         2  2  2  2  2  2  2  2  2  2  2  2  0  2  2  0  0
++         0  0  0  0  0  0  0  0  0  0  0  0  0  0  0  0  0
++         0  0  0  0  0  0  0  0  0  0  0  0  0  0  0  0  0
++         0  0  0  0  0  0  0  0  0  0  0  0  0  0  0  0  0
%c G  cc GPS ccc cccc cccc cccc cccc ccccc ccccc ccccc ccccc
%c cc cc ccc ccc cccc cccc cccc cccc ccccc ccccc ccccc ccccc
%f  1.2500000  1.025000000  0.00000000000  0.000000000000000
%f  0.0000000  0.000000000  0.00000000000  0.000000000000000
%i    0    0    0    0      0      0      0      0         0
%i    0    0    0    0      0      0      0      0         0
/* FINAL ORBIT COMBINATION FROM WEIGHTED AVERAGE OF:        
/* cod emr esa gfz grg jpl mit ngs sio                      
/* REFERENCED TO IGS TIME (IGST) AND TO WEIGHTED MEAN POLE: 
/* PCV:IGS08_1771 OL/AL:FES2004  NONE     Y  ORB:CMB CLK:CMB
*  2014  2  8  7 30  0.00000000
PG01  14260.493028  -5742.017846  21617.493526     -2.033304  5  7  5  44       
PG02 -14435.157781 -17454.941323 -14007.372686    477.412795  7  9  6 107       
PG03  25044.075532   8045.465318  -4817.037157    322.976416  4  6  4 109       
PG04  -6395.432627 -25617.939835  -1400.866469      5.396107  8  4  7  90       
PG05 -16285.270651  -5176.585398 -20414.169821   -389.399716  8  3  8 108       
PG06  20671.589009  13309.814343 -10503.801343    267.447761  4  5  2 104       
PG07   7234.362863 -19988.974383 -15646.874847    311.554977  2  5  5 111       
PG08   1501.230685 -25588.500915  -5445.613681     11.796341  8  6  9  56       
PG09  -1080.165775 -25876.384024  -6017.324741    303.957277  8  8  9  81       
PG10    610.761654 -18715.329130 -19008.939114   -113.399503  5  7  4 125       
PG11  18370.876335   1870.367983  18676.358561   -462.481236  3  5  5 106       
PG12 -22404.762771   9474.466691  10344.283601    185.135830  4  7  6 110       
PG13  13945.707506  -9055.373326 -20881.290426     31.775921  7  7  7 118       
PG14   4300.394384  16876.011006  20307.647486    200.038892  5  7  4 114       
PG15 -25804.983924  -2990.489737   6171.987999   -161.973931  5  9  6 103       
PG16  16004.105481   4852.886495 -20755.966888   -232.360450  4  8  5  83       
PG17  -5860.749221 -16948.085560  19917.442963    -66.405957  6  8  6 106       
PG18 -14994.819406  20631.915520   7185.852457    300.718672  3  9  3  97       
PG19  25220.419073   6723.847092   5919.633222   -437.495096  2  8  4 127       
PG20  21664.145229 -12713.191506   8320.958523    159.860219  5  6  3  95       
PG21  -6068.044698  21229.344882 -13799.125853   -342.782347  7  8  4  98       
PG22  -4630.797657  20564.261230  16266.694074    211.984442  6  8  4  90       
PG23  22926.642709  -2154.559391 -13484.632689      5.777765  3  6  4  77       
PG24 -15482.038168    140.552240  21576.410361    -22.950702  4  5  6 103       
PG25 -19199.061924  18214.265523  -1276.339474     13.495283  8  6  6  90       
PG26 -22452.953160 -13816.794523  -5048.833711    171.222108  6  7  3 119       
PG27  22310.252678  12617.812313  -7037.962154    -17.946093  4  6  6  96       
PG28   8688.020911 -19955.129632  15728.080899    330.878898  2  8  4 128       
PG29 -16289.666723   7892.556502 -19379.500843    509.328540  5  7  4 107       
PG30   1589.622887  16826.509122 -20589.574888 999999.999999
PG31   7384.111015  24896.637931  -4554.428451    333.064858  4  9  3 104       
PG32  20402.649802   -103.287518  16774.211794   -489.204506  2  7  4  82       
*  2014  2  8  7 45  0.00000000
PG01  14837.299731  -3321.265707  21746.888888     -2.031356  5  7  4  77       
PG02 -14594.511671 -18964.263643 -11788.009222    477.414826  7  9  7 109       
PG03  24367.177243   8240.035705  -7498.291880    322.980559  4  5  4  91       
PG04  -6058.990987 -25664.855551   1424.153133      5.396609  7  4  7  94       
PG05 -14612.867770  -6858.938300 -21157.515746   -389.398203  8  4  7 119       
PG06  19320.687875  13236.786169 -12853.295442    267.460886  4  5  2  91       
PG07   7788.836216 -18144.773808 -17535.659569    311.558755  2  4  5  98       
PG08   1779.091406 -24802.075352  -8263.787664     11.797348  8  6  9  74       
PG09   -722.635859 -25155.583013  -8759.928741    303.960438  8  8 10  19       
PG10   2242.012011 -19965.646279 -17491.080466   -113.400284  5  7  5  90       
PG11  19316.845026   3839.550194  17430.982983   -462.484297  3  5  4  99       
PG12 -21510.236418   8466.854577  12827.874921    185.137420  4  7  6 105       
PG13  16029.129868  -8104.171733 -19751.206118     31.772879  7  7  7 102       
PG14   2102.952755  16103.073065  21256.779764    200.036263  6  6  5 114       
PG15 -26265.988707  -3413.105283   3450.971015   -161.975960  5  9  6 102       
PG16  14189.840373   6428.859047 -21600.014178   -232.359101  4  8  6  82       
PG17  -3681.637662 -16267.586782  20971.174981    -66.409020  6  8  6 111       
PG18 -15699.344284  20805.539201   4490.351244    300.720427  3  8  3 110       
PG19  25630.183423   7113.291722   3143.060492   -437.497462  3  8  5 132       
PG20  21125.933561 -11671.870204  10809.257954    159.863324  5  6  3  93       
PG21  -6768.019061  19530.555162 -15798.623163   -342.784279  7  8  4  67       
PG22  -6063.655592  21575.296560  14334.866229    211.986966  6  8  4 103       
PG23  24213.609636  -1537.959763 -11170.650509      5.774581  4  6  4  76       
PG24 -16023.453666  -2241.117367  21067.074808    -22.951016  3  6  7 111       
PG25 -19334.574870  18034.191400   1615.230816     13.496982  8  6  6 109       
PG26 -21786.130992 -13728.098159  -7793.591920    171.212278  6  7  3 108       
PG27  21329.604634  12564.778218  -9675.736053    -17.947267  4  7  6  98       
PG28   9987.986816 -20863.990546  13525.641737    330.881913  2  8  4 125       
PG29 -18262.654744   7055.118586 -17885.903720    509.331063  5  7  4 110       
PG30   -135.673477  18281.503993 -19345.136017 999999.999999
PG31   7239.701668  25311.142637  -1672.791225    333.065138  5  9  3 104       
PG32  18936.747537   1305.950894  18419.441564   -489.198880  2  6  4  87       
*  2014  2  8  8  0  0.00000000
PG01  15537.120129   -941.316373  21501.028593     -2.029374  5  6  4  79       
PG02 -14749.605702 -20211.979101  -9368.356897    477.416828  7  9  8 106       
PG03  23411.895530   8439.027383 -10053.863688    322.985094  4  5  4 102       
PG04  -5629.582407 -25422.600774   4224.208728      5.397478  6  4  7  99       
PG05 -12982.689601  -8670.375174 -21538.938808   -389.396834  8  5  6 118       
PG06  17717.931972  13190.678292 -14985.390400    267.474152  3  5  2  84       
PG07   8493.057619 -16143.310914 -19117.471255    311.562542  1  4  5 101       
PG08   2155.467684 -23720.279422 -10933.855788     11.798887  8  7  9  51       
PG09   -243.610208 -24168.698611 -11353.278492    303.963215  8  8 10  69       
PG10   3683.719186 -21162.813441 -15674.879399   -113.401306  5  7  5 103       
PG11  20250.512274   5633.628328  15876.684148   -462.487157  4  5  4 106       
PG12 -20480.515172   7221.263197  15087.619556    185.139787  5  6  6 108       
PG13  18023.729314  -7318.360045 -18286.430247     31.768907  7  7  6 110       
PG14   -216.287636  15424.704627  21847.873349    200.033368  6  6  5 102       
PG15 -26444.903699  -3750.521376    671.546899   -161.977819  5  9  7  97       
PG16  12411.411122   8158.725950 -22075.366544   -232.357882  5  9  6  99       
PG17  -1373.191478 -15679.044957  21673.436673    -66.412218  5  8  6 104       
PG18 -16187.397222  20783.960806   1716.625006    300.722490  3  7  4 102       
PG19  25762.495350   7378.181879    313.714147   -437.499863  4  8  6 130       
PG20  20461.999487 -10398.023361  13109.092660    159.866241  5  6  3  96       
PG21  -7607.692280  17658.979947 -17508.872524   -342.785997  8  7  4  63       
PG22  -7292.429688  22484.133810  12157.558581    211.989327  6  8  4 104       
PG23  25266.728255  -1055.701235  -8667.616745      5.771749  4  6  4  85       
PG24 -16663.901594  -4516.162011  20195.357118    -22.950871  3  6  7 117       
PG25 -19256.301106  17622.177227   4478.771850     13.498643  8  6  6 110       
PG26 -20836.018100 -13577.129476 -10409.326178    171.202360  6  7  3 109       
PG27  20066.027814  12497.241712 -12147.336223    -17.948405  4  7  6  89       
PG28  11050.700078 -21667.759167  11096.536565    330.884565  3  8  4 126       
PG29 -20097.719248   6376.176382 -16083.052591    509.333700  5  7  5 103       
PG30  -1669.277927  19716.365956 -17769.944031 999999.999999
PG31   7032.988931  25412.417784   1238.247318    333.065218  5  9  3 103       
PG32  17418.933482   2894.158609  19743.745150   -489.193529  2  6  4  77       
EOF
